COMMENT,ORIGINATOR,NORAD_CAT_ID,OBJECT_NAME,OBJECT_TYPE,CLASSIFICATION_TYPE,INTLDES,EPOCH,EPOCH_MICROSECONDS,MEAN_MOTION,ECCENTRICITY,INCLINATION,RA_OF_ASC_NODE,ARG_OF_PERICENTER,MEAN_ANOMALY,EPHEMERIS_TYPE,ELEMENT_SET_NO,REV_AT_EPOCH,BSTAR,MEAN_MOTION_DOT,MEAN_MOTION_DDOT,FILE,TLE_LINE0,TLE_LINE1,TLE_LINE2,OBJECT_ID,OBJECT_NUMBER,SEMIMAJOR_AXIS,PERIOD,APOGEE,PERIGEE,DECAYED
GENERATED VIA SPACETRACK.ORG API,18 SPCS,41469,IRNSS 1G,PAYLOAD,U,16027A,2024-03-05 12:51:42,666336,1.00269263,0.0005077,3.2099,123.1028,290.4283,72.6522,0,999,2882,0,-0.00000336,0,4209183,0 IRNSS 1G,1 41469U 16027A   24065.53591049 -.00000336  00000-0  00000-0 0  9996,2 41469   3.2099 123.1028 0005077 290.4283  72.6522  1.00269263 28826,2016-027A,41469,42165.439,1436.133,35808.711,35765.897,0
GENERATED VIA SPACETRACK.ORG API,18 SPCS,38704,TITAN 3C TRANSTAGE DEB,DEBRIS,U,68081AE,2024-03-05 12:33:27,529056,1.02193909,0.0210238,2.1906,62.5228,214.2531,175.0101,0,999,6750,0,-0.00000317,0,4211434,0 TITAN 3C TRANSTAGE DEB,1 38704U 68081AE  24065.52323529 -.00000317  00000-0  00000+0 0  9994,2 38704   2.1906  62.5228 0210238 214.2531 175.0101  1.02193909 67508,1968-081AE,38704,41634.354,1409.086,36131.532,34380.907,0
GENERATED VIA SPACETRACK.ORG API,18 SPCS,25001,TITAN 3C TRANSTAGE DEB,DEBRIS,U,68081H,2024-03-05 12:31:42,267072,1.01696762,0.0068773,1.0316,346.9407,39.3041,58.3294,0,999,10984,0,-0.00000281,0,4209183,0 TITAN 3C TRANSTAGE DEB,1 25001U 68081H   24065.52201698 -.00000281  00000-0  00000-0 0  9993,2 25001   1.0316 346.9407 0068773  39.3041  58.3294  1.01696762109846,1968-081H,25001,41769.931,1415.974,35679.060,35104.532,0
GENERATED VIA SPACETRACK.ORG API,18 SPCS,44457,COSMOS 2539,PAYLOAD,U,19048A,2024-03-05 12:30:42,596640,1.00271453,0.0000171,0.0147,125.7943,151.5702,86.0385,0,999,1686,0,0.00000082,0,4209183,0 COSMOS 2539,1 44457U 19048A   24065.52132635  .00000082  00000-0  00000-0 0  9990,2 44457   0.0147 125.7943 0000171 151.5702  86.0385  1.00271453 16863,2019-048A,44457,42164.825,1436.102,35787.411,35785.969,0
GENERATED VIA SPACETRACK.ORG API,18 SPCS,44479,AMOS 17,PAYLOAD,U,19050A,2024-03-05 12:22:42,723264,1.00270196,0.0002127,0.0211,103.9915,268.6394,353.7665,0,999,1682,0,0.0000011,0,4209183,0 AMOS 17,1 44479U 19050A   24065.51577226  .00000110  00000-0  00000-0 0  9997,2 44479   0.0211 103.9915 0002127 268.6394 353.7665  1.00270196 16820,2019-050A,44479,42165.177,1436.120,35796.011,35778.074,0
GENERATED VIA SPACETRACK.ORG API,18 SPCS,29055,ASTRA 1KR,PAYLOAD,U,06012A,2024-03-05 12:22:42,723264,1.00269847,0.000287,0.0761,281.3205,12.3174,74.951,0,999,3735,0,0.0000012,0,4209183,0 ASTRA 1KR,1 29055U 06012A   24065.51577226  .00000120  00000-0  00000-0 0  9995,2 29055   0.0761 281.3205 0002870  12.3174  74.9510  1.00269847 37354,2006-012A,29055,42165.275,1436.125,35799.242,35775.039,0
GENERATED VIA SPACETRACK.ORG API,18 SPCS,33436,ASTRA 1M,PAYLOAD,U,08057A,2024-03-05 12:22:42,723264,1.00270506,0.0001523,0.0137,101.1172,306.5069,320.9672,0,999,3737,0,0.00000121,0,4209183,0 ASTRA 1M,1 33436U 08057A   24065.51577226  .00000121  00000-0  00000-0 0  9995,2 33436   0.0137 101.1172 0001523 306.5069 320.9672  1.00270506 37375,2008-057A,33436,42165.091,1436.115,35793.377,35780.534,0
GENERATED VIA SPACETRACK.ORG API,18 SPCS,43162,SBIRS GEO 3 (USA 282),PAYLOAD,U,18009A,2024-03-05 12:18:04,760640,1.00272223,0.0001794,2.4889,331.8896,21.7129,195.2369,0,999,2248,0,0.00000132,0,4209183,0 SBIRS GEO 3 (USA 282),1 43162U 18009A   24065.51255510  .00000132  00000-0  00000-0 0  9991,2 43162   2.4889 331.8896 0001794  21.7129 195.2369  1.00272223 22480,2018-009A,43162,42164.609,1436.091,35794.039,35778.910,0
GENERATED VIA SPACETRACK.ORG API,18 SPCS,33373,NIMIQ 4,PAYLOAD,U,08044A,2024-03-05 11:24:42,582240,1.00272015,0.0001892,0.0148,131.583,211.7228,269.5457,0,999,5662,0,-0.00000219,0,4209183,0 NIMIQ 4,1 33373U 08044A   24065.47549285 -.00000219  00000-0  00000-0 0  9999,2 33373   0.0148 131.5830 0001892 211.7228 269.5457  1.00272015 56623,2008-044A,33373,42164.667,1436.094,35794.510,35778.555,0
GENERATED VIA SPACETRACK.ORG API,18 SPCS,23712,USA 115,PAYLOAD,U,95060A,2024-03-05 10:57:42,120000,1.00274759,0.0003202,13.7627,9.7622,318.3536,239.998,0,999,2452,0,-0.00000014,0,4209183,0 USA 115,1 23712U 95060A   24065.45673750 -.00000014  00000-0  00000-0 0  9995,2 23712  13.7627   9.7622 0003202 318.3536 239.9980  1.00274759 24523,1995-060A,23712,42163.898,1436.054,35799.264,35772.262,0
GENERATED VIA SPACETRACK.ORG API,18 SPCS,23712,USA 115,PAYLOAD,U,95060A,2024-03-05 10:57:42,120000,1.00274759,0.0003202,13.7627,9.7622,318.3536,239.998,0,999,2328,0,-0.00000014,0,4209303,0 USA 115,1 23712U 95060A   24065.45673750 -.00000014  00000-0  00000+0 0  9994,2 23712  13.7627   9.7622 0003202 318.3536 239.9980  1.00274759 23285,1995-060A,23712,42163.898,1436.054,35799.264,35772.262,0
GENERATED VIA SPACETRACK.ORG API,18 SPCS,22988,USA 99,PAYLOAD,U,94009A,2024-03-05 09:21:46,613376,1.00272728,0.0003032,16.3474,36.5324,311.233,226.3308,0,999,2460,0,-0.00000193,0,4209183,0 USA 99,1 22988U 94009A   24065.39012284 -.00000193  00000-0  00000-0 0  9991,2 22988  16.3474  36.5324 0003032 311.2330 226.3308  1.00272728 24605,1994-009A,22988,42164.468,1436.083,35799.117,35773.548,0
GENERATED VIA SPACETRACK.ORG API,18 SPCS,22988,USA 99,PAYLOAD,U,94009A,2024-03-05 09:21:46,613376,1.00272728,0.0003032,16.3474,36.5324,311.233,226.3308,0,999,2328,0,-0.00000193,0,4209209,0 USA 99,1 22988U 94009A   24065.39012284 -.00000193  00000-0  00000+0 0  9990,2 22988  16.3474  36.5324 0003032 311.2330 226.3308  1.00272728 23288,1994-009A,22988,42164.468,1436.083,35799.117,35773.548,0
GENERATED VIA SPACETRACK.ORG API,18 SPCS,43454,TITAN 3C TRANSTAGE DEB,DEBRIS,U,69013M,2024-03-05 08:18:43,182432,1.02844448,0.0561188,1.469,246.7918,212.4473,143.1523,0,999,2205,0,-0.00000094,0,4211361,0 TITAN 3C TRANSTAGE DEB,1 43454U 69013M   24065.34633313 -.00000094  00000-0  00000-0 0  9996,2 43454   1.4690 246.7918 0561188 212.4473 143.1523  1.02844448 22054,1969-013M,43454,41458.598,1400.173,37407.069,32753.856,0
GENERATED VIA SPACETRACK.ORG API,18 SPCS,42749,ECHOSTAR 21,PAYLOAD,U,17032A,2024-03-05 05:15:20,354976,1.00271566,0.0002267,2.7214,317.6294,24.9552,269.9287,0,999,2474,0,0.00000069,0,4209183,0 ECHOSTAR 21,1 42749U 17032A   24065.21898559  .00000069  00000-0  00000-0 0  9998,2 42749   2.7214 317.6294 0002267  24.9552 269.9287  1.00271566 24748,2017-032A,42749,42164.793,1436.100,35796.217,35777.100,0
GENERATED VIA SPACETRACK.ORG API,18 SPCS,25967,UFO 10 (USA 146),PAYLOAD,U,99063A,2024-03-05 05:05:48,930432,1.00268303,0.0003731,9.3991,31.0818,280.7477,265.116,0,999,8898,0,-0.00000184,0,4209183,0 UFO 10 (USA 146),1 25967U 99063A   24065.21237188 -.00000184  00000-0  00000-0 0  9999,2 25967   9.3991  31.0818 0003731 280.7477 265.1160  1.00268303 88989,1999-063A,25967,42165.708,1436.147,35803.305,35771.841,0
GENERATED VIA SPACETRACK.ORG API,18 SPCS,20253,FLTSATCOM 8 (USA 46),PAYLOAD,U,89077A,2024-03-05 04:48:42,419808,1.00274065,0.000683,12.6664,356.1939,350.8786,14.4059,0,999,25226,0,-0.00000359,0,4209183,0 FLTSATCOM 8 (USA 46),1 20253U 89077A   24065.20049097 -.00000359  00000-0  00000-0 0  9999,2 20253  12.6664 356.1939 0006830 350.8786  14.4059  1.00274065252264,1989-077A,20253,42164.093,1436.064,35814.756,35757.160,0
GENERATED VIA SPACETRACK.ORG API,18 SPCS,44457,COSMOS 2539,PAYLOAD,U,19048A,2024-03-05 04:11:42,606816,1.00272621,0.0000212,0.0138,127.517,172.6602,298.1354,0,999,1685,0,0.00000083,0,4208826,0 COSMOS 2539,1 44457U 19048A   24065.17479869  .00000083  00000-0  00000+0 0  9994,2 44457   0.0138 127.5170 0000212 172.6602 298.1354  1.00272621 16853,2019-048A,44457,42164.498,1436.085,35787.256,35785.469,0
GENERATED VIA SPACETRACK.ORG API,18 SPCS,42749,ECHOSTAR 21,PAYLOAD,U,17032A,2024-03-05 03:32:12,423264,1.00271557,0.0002268,2.7215,317.6302,24.7046,244.3249,0,999,2475,0,0.00000069,0,4208729,0 ECHOSTAR 21,1 42749U 17032A   24065.14736601  .00000069  00000-0  00000+0 0  9998,2 42749   2.7215 317.6302 0002268  24.7046 244.3249  1.00271557 24752,2017-032A,42749,42164.796,1436.100,35796.224,35777.098,0
GENERATED VIA SPACETRACK.ORG API,18 SPCS,33373,NIMIQ 4,PAYLOAD,U,08044A,2024-03-05 03:05:45,966336,1.00272113,0.0001894,0.014,132.3515,209.8125,145.6094,0,999,5647,0,-0.00000218,0,4208815,0 NIMIQ 4,1 33373U 08044A   24065.12900424 -.00000218  00000-0  00000+0 0  9995,2 33373   0.0140 132.3515 0001894 209.8125 145.6094  1.00272113 56473,2008-044A,33373,42164.640,1436.092,35794.491,35778.519,0
GENERATED VIA SPACETRACK.ORG API,18 SPCS,25001,TITAN 3C TRANSTAGE DEB,DEBRIS,U,68081H,2024-03-05 02:12:00,422784,1.01696758,0.0068733,1.0319,346.8894,39.306,260.8166,0,999,10983,0,-0.00000281,0,4208823,0 TITAN 3C TRANSTAGE DEB,1 25001U 68081H   24065.09167156 -.00000281  00000-0  00000+0 0  9994,2 25001   1.0319 346.8894 0068733  39.3060 260.8166  1.01696758109837,1968-081H,25001,41769.932,1415.974,35678.894,35104.700,0
GENERATED VIA SPACETRACK.ORG API,18 SPCS,41469,IRNSS 1G,PAYLOAD,U,16027A,2024-03-05 01:19:42,570912,1.00269517,0.0005066,3.2088,123.1232,290.478,259.1117,0,999,2880,0,-0.00000334,0,4208897,0 IRNSS 1G,1 41469U 16027A   24065.05535383 -.00000334  00000-0  00000+0 0  9999,2 41469   3.2088 123.1232 0005066 290.4780 259.1117  1.00269517 28803,2016-027A,41469,42165.368,1436.129,35808.594,35765.872,0
GENERATED VIA SPACETRACK.ORG API,18 SPCS,41548,BREEZE-M DEB,DEBRIS,U,15075J,2024-03-05 00:03:54,314208,1.02195253,0.0361808,6.7906,63.9072,110.9558,253.1186,0,999,3074,0,-0.00000266,0,4209183,0 BREEZE-M DEB,1 41548U 15075J   24065.00271197 -.00000266  00000-0  00000-0 0  9999,2 41548   6.7906  63.9072 0361808 110.9558 253.1186  1.02195253 30742,2015-075J,41548,41633.989,1409.067,36762.205,33749.503,0
